{
    "links": {
        "self": "http://www.neowsapp.com/rest/v1/neo/3608427?api_key=iIulBulltgU6a56xZRHN4H3l9WmuAYTsLGpBGhQ2"
    },
    "id": "3608427",
    "neo_reference_id": "3608427",
    "name": "(2012 RO1)",
    "designation": "2012 RO1",
    "nasa_jpl_url": "http://ssd.jpl.nasa.gov/sbdb.cgi?sstr=3608427",
    "absolute_magnitude_h": 19.7,
    "estimated_diameter": {
        "kilometers": {
            "estimated_diameter_min": 0.3051792326,
            "estimated_diameter_max": 0.6824015094
        },
        "meters": {
            "estimated_diameter_min": 305.1792325939,
            "estimated_diameter_max": 682.4015094011
        },
        "miles": {
            "estimated_diameter_min": 0.1896295249,
            "estimated_diameter_max": 0.4240245083
        },
        "feet": {
            "estimated_diameter_min": 1001.2442334633,
            "estimated_diameter_max": 2238.8501681036
        }
    },
    "is_potentially_hazardous_asteroid": false,
    "close_approach_data": [
        {
            "close_approach_date": "1911-12-31",
            "close_approach_date_full": "1911-Dec-31 05:56",
            "epoch_date_close_approach": -1830449040000,
            "relative_velocity": {
                "kilometers_per_second": "13.6466889105",
                "kilometers_per_hour": "49128.0800778511",
                "miles_per_hour": "30526.2784239292"
            },
            "miss_distance": {
                "astronomical": "0.4976272656",
                "lunar": "193.5770063184",
                "kilometers": "74443978.987684272",
                "miles": "46257343.5614240736"
            },
            "orbiting_body": "Earth"
        },
        {
            "close_approach_date": "1997-01-04",
            "close_approach_date_full": "1997-Jan-04 12:59",
            "epoch_date_close_approach": 852382740000,
            "relative_velocity": {
                "kilometers_per_second": "13.0767941956",
                "kilometers_per_hour": "47076.4591042982",
                "miles_per_hour": "29251.4809362235"
            },
            "miss_distance": {
                "astronomical": "0.4670399846",
                "lunar": "181.6785540094",
                "kilometers": "69868186.900992802",
                "miles": "43414078.2027205876"
            },
            "orbiting_body": "Earth"
        },
        {
            "close_approach_date": "2001-01-02",
            "close_approach_date_full": "2001-Jan-02 04:24",
            "epoch_date_close_approach": 978409440000,
            "relative_velocity": {
                "kilometers_per_second": "14.0080761901",
                "kilometers_per_hour": "50429.0742843964",
                "miles_per_hour": "31334.6656296573"
            },
            "miss_distance": {
                "astronomical": "0.457847439",
                "lunar": "178.102653771",
                "kilometers": "68493001.65935493",
                "miles": "42559577.717280834"
            },
            "orbiting_body": "Earth"
        },
        {
            "close_approach_date": "2077-10-08",
            "close_approach_date_full": "2077-Oct-08 19:12",
            "epoch_date_close_approach": 3400945920000,
            "relative_velocity": {
                "kilometers_per_second": "13.7749527547",
                "kilometers_per_hour": "49589.8299170316",
                "miles_per_hour": "30813.1918170578"
            },
            "miss_distance": {
                "astronomical": "0.0995239009",
                "lunar": "38.7147974501",
                "kilometers": "14888563.588731083",
                "miles": "9251324.4244236254"
            },
            "orbiting_body": "Mars"
        },
        {
            "close_approach_date": "2130-06-09",
            "close_approach_date_full": "2130-Jun-09 02:09",
            "epoch_date_close_approach": 5062874940000,
            "relative_velocity": {
                "kilometers_per_second": "13.8630766935",
                "kilometers_per_hour": "49907.0760966947",
                "miles_per_hour": "31010.316255749"
            },
            "miss_distance": {
                "astronomical": "0.082473216",
                "lunar": "32.082081024",
                "kilometers": "12337817.44564992",
                "miles": "7666364.266692096"
            },
            "orbiting_body": "Mars"
        }
    ],
    "orbital_data": {
        "orbit_id": "22",
        "orbit_determination_date": "2020-09-15 06:52:14",
        "first_observation_date": "2012-09-06",
        "last_observation_date": "2020-09-14",
        "data_arc_in_days": 2930,
        "observations_used": 82,
        "orbit_uncertainty": "0",
        "minimum_orbit_intersection": ".456406",
        "jupiter_tisserand_invariant": "3.130",
        "epoch_osculation": "2459000.5",
        "eccentricity": ".5136860671414548",
        "semi_major_axis": "2.531796013450543",
        "inclination": "26.11031352080186",
        "ascending_node_longitude": "313.9470574941183",
        "orbital_period": "1471.436396978502",
        "perihelion_distance": "1.23124767649672",
        "perihelion_argument": "105.5638823083536",
        "aphelion_distance": "3.832344350404367",
        "perihelion_time": "2459223.902762222532",
        "mean_anomaly": "305.3425275022018",
        "mean_motion": ".2446588929968271",
        "equinox": "J2000",
        "orbit_class": {
            "orbit_class_type": "AMO",
            "orbit_class_description": "Near-Earth asteroid orbits similar to that of 1221 Amor",
            "orbit_class_range": "1.017 AU < q (perihelion) < 1.3 AU"
        }
    },
    "is_sentry_object": false
}